SKYNET 5B               
1 32294U 07056B   17227.87132668  .00000125  00000-0  00000-0 0  9996
2 32294   0.0690   6.1881 0003666 137.0237 160.0069  1.00270603 35857
ASTRA 4A (SIRIUS 4)     
1 32299U 07057A   17228.06374513  .00000014  00000-0  00000+0 0  9997
2 32299   0.0572 286.6659 0002560 217.3090 208.4261  1.00270047 35594
HORIZONS-2              
1 32388U 07063B   17228.51098660 -.00000202  00000-0  00000+0 0  9999
2 32388   0.0154  91.7346 0002933  60.6557  81.5070  1.00271861 35524
THURAYA-3               
1 32404U 08001A   17228.34424323 -.00000314  00000-0  00000+0 0  9995
2 32404   4.0314 354.3642 0004457 152.5255  40.4536  1.00270231 35173
EXPRESS-AM33            
1 32478U 08003A   17227.31257346 -.00000295  00000-0  00000+0 0  9991
2 32478   0.0378 258.2579 0000168   9.7405 264.9143  1.00269616 35246
THOR 5                  
1 32487U 08006A   17228.23094744 -.00000027  00000-0  00000+0 0  9990
2 32487   0.0527 270.6248 0002199 244.1805 252.4004  1.00272671 34824
KIZUNA (WINDS)          
1 32500U 08007A   17228.47063236 -.00000278  00000-0  00000+0 0  9993
2 32500   0.9571  90.0606 0002673  49.7214 137.6820  1.00271017 34676
AMC-14                  
1 32708U 08011A   17222.73752036  .00000087  00000-0  00000-0 0  9992
2 32708  19.2140  62.0213 0037838   2.5833 178.3135  1.00275787 35680
DIRECTV 11              
1 32729U 08013A   17228.32188799 -.00000144  00000-0  00000+0 0  9991
2 32729   0.0013 252.2538 0000386 311.3788 137.9544  1.00271529 34573
ICO G1                  
1 32763U 08016A   17228.13781069 -.00000183  00000-0  00000+0 0  9993
2 32763   3.8136 355.7227 0002509 158.1455 127.5915  1.00270942 34103
VINASAT-1               
1 32767U 08018A   17227.73262151 -.00000345  00000-0  00000-0 0  9991
2 32767   0.0283 317.0067 0001685 211.8432 191.1503  1.00270573 34254
STAR ONE C2             
1 32768U 08018B   17228.29202354 -.00000283  00000-0  00000+0 0  9993
2 32768   0.0346 201.7917 0002509 321.6402 196.5715  1.00272536 34199
TIANLIAN 1-01           
1 32779U 08019A   17228.09511341 -.00000157  00000-0  10000-3 0  9998
2 32779   2.9151  75.8867 0031625 228.1981 134.8766  1.00272673 34119
AMOS-3                  
1 32794U 08022A   17227.83579015 -.00000052  00000-0  00000-0 0  9992
2 32794   0.0487 264.7486 0001510 257.3424  99.0813  1.00271240 50010
GALAXY 18 (G-18)        
1 32951U 08024A   17228.43888901  .00000006  00000-0  00000+0 0  9990
2 32951   0.0089 126.0616 0003048  31.7728 202.1737  1.00271919 33732
CHINASAT 9 (ZX 9)       
1 33051U 08028A   17227.81712586 -.00000265  00000-0  00000-0 0  9991
2 33051   0.0134 246.8054 0003997 256.5803 207.3980  1.00271964 33643
SKYNET 5C               
1 33055U 08030A   17228.15359885 -.00000158  00000-0  00000+0 0  9995
2 33055   0.0635 347.2324 0004049 180.8728 194.0980  1.00271396 33543
TURKSAT 3A              
1 33056U 08030B   17228.14209380  .00000128  00000-0  00000+0 0  9995
2 33056   0.0240  82.0806 0004851  57.4658 278.3272  1.00273694 33720
INTELSAT 25 (IS-25)     
1 33153U 08034A   17227.18816230 -.00000239  00000-0  00000-0 0  9993
2 33153   0.0359 270.1081 0002457 229.9678 219.9395  1.00270775 33377
BADR-6                  
1 33154U 08034B   17227.97305484  .00000127  00000-0  00000-0 0  9990
2 33154   0.0516  31.1400 0003698  85.6312 224.0909  1.00274309 33390
ECHOSTAR 11             
1 33207U 08035A   17227.40561142 -.00000072  00000-0  00000+0 0  9992
2 33207   0.0435 280.4226 0002497 231.8320 207.7558  1.00271012 33299
SUPERBIRD-C2            
1 33274U 08038A   17228.47063236 -.00000270  00000-0  00000+0 0  9998
2 33274   0.0140 107.1605 0002042 108.5661  62.6864  1.00269254 33020
AMC-21                  
1 33275U 08038B   17227.98865519  .00000019  00000-0  00000+0 0  9998
2 33275   0.0508 291.3925 0002431 236.8062  27.3890  1.00272588 33102
INMARSAT 4-F3           
1 33278U 08039A   17228.35809979 -.00000157  00000-0  00000+0 0  9996
2 33278   3.0223   2.0027 0002637 148.8734 204.9944  1.00272668 32907
NIMIQ 4                 
1 33373U 08044A   17227.73309895 -.00000237  00000-0  00000-0 0  9991
2 33373   0.0217  92.5212 0002165  42.9105  10.7957  1.00271747 32617
GALAXY 19 (G-19)        
1 33376U 08045A   17227.36961464 -.00000154  00000-0  00000+0 0  9997
2 33376   0.0223 217.3812 0003120 299.8703 202.7595  1.00269645 32478
VENESAT-1               
1 33414U 08055A   17227.52271517 -.00000253  00000-0  00000-0 0  9993
2 33414   0.0229 110.6225 0001955  75.1738 248.4740  1.00271863 32314
ASTRA 1M                
1 33436U 08057A   17227.73587706  .00000102  00000-0  00000+0 0  9993
2 33436   0.0404 277.2704 0004990 279.3642  51.5448  1.00273863 32117
CIEL-2                  
1 33453U 08063A   17228.04837681  .00000040  00000-0  00000+0 0  9995
2 33453   0.0089 279.7086 0002979 239.5561  53.9220  1.00272149 31791
EUTELSAT HOT BIRD 13C   
1 33459U 08065A   17227.06482057  .00000072  00000-0  00000+0 0  9992
2 33459   0.0526  22.1478 0003939 121.8426 216.0339  1.00273503 31886
EUTELSAT 48D            
1 33460U 08065B   17228.28174352  .00000105  00000-0  00000+0 0  9992
2 33460   0.0650 317.3360 0002280 216.2755 300.7902  1.00275051 31750
FENGYUN 2E              
1 33463U 08066A   17227.93740788 -.00000215  00000-0  00000+0 0  9992
2 33463   2.2876  67.6322 0004189 205.3621 115.3670  1.00265603 31722
EXPRESS-AM44            
1 33595U 09007A   17227.51854890 -.00000105  00000-0  00000-0 0  9997
2 33595   0.0352 249.9630 0000701 313.8990 295.9285  1.00272268 31193
NSS-9                   
1 33749U 09008A   17227.80040242  .00000055  00000-0  00000+0 0  9991
2 33749   0.0512 291.4717 0001979 213.9120 290.1903  1.00271382 31205
EUTELSAT 33E            
1 33750U 09008B   17228.20135593  .00000138  00000-0  00000+0 0  9994
2 33750   0.0414 303.6635 0005434 232.0000 254.6700  1.00271307 31243
TELSTAR 11N             
1 34111U 09009A   17228.35462624 -.00000269  00000-0  00000+0 0  9997
2 34111   0.0150 104.5662 0002188  32.8136 277.6693  1.00270822 31066
EUTELSAT 10A            
1 34710U 09016A   17227.83614081  .00000051  00000-0  00000-0 0  9997
2 34710   0.0648  12.3228 0004879 135.5511 127.5317  1.00272169  8891
SES-7 (PROTOSTAR 2)     
1 34941U 09027A   17227.70118730 -.00000361  00000-0  00000+0 0  9995
2 34941   0.0207  76.6949 0002504 155.1263  93.1140  1.00268236 30253
MEASAT-3A               
1 35362U 09032A   17226.84737686 -.00000255  00000-0  00000+0 0  9992
2 35362   0.0472 232.3616 0002890 318.7550 168.8750  1.00269226 29874
GOES 14                 
1 35491U 09033A   17228.38800979 -.00000110  00000-0  00000+0 0  9993
2 35491   0.4200 274.0459 0009019 297.9574 147.9366  1.00273919 29800
SIRIUS FM-5             
1 35493U 09034A   17228.37545948 -.00000219  00000-0  00000+0 0  9997
2 35493   0.0174  88.4542 0000650 228.4994  57.0138  1.00268681 29623
TERRESTAR-1             
1 35496U 09035A   17227.36943244 -.00000068  00000-0  00000+0 0  9992
2 35496   2.8482 345.6100 0002929 160.5876 199.7341  1.00272034 29797
ASIASAT 5               
1 35696U 09042A   17228.44384249 -.00000326  00000-0  00000+0 0  9993
2 35696   0.0435 273.5652 0001646 195.0514 116.6915  1.00272523 29311
JCSAT-RA (JCSAT-12)     
1 35755U 09044A   17227.74372361 -.00000362  00000-0  00000+0 0  9995
2 35755   0.0467  59.5271 0000833  95.7733 204.7000  1.00270511 29305
OPTUS D3                
1 35756U 09044B   17228.52615699 -.00000167  00000-0  00000+0 0  9990
2 35756   0.0324   9.1043 0002348 131.4502 169.9413  1.00269892 29277
PALAPA D                
1 35812U 09046A   17226.78792064 -.00000372  00000-0  00000-0 0  9992
2 35812   0.0294  93.5822 0001551  70.9930 195.4276  1.00271269 29312
NIMIQ 5                 
1 35873U 09050A   17228.47914160 -.00000276  00000-0  00000+0 0  9997
2 35873   0.0551 279.0138 0001864 237.1573 268.6736  1.00270060 29001
AMAZONAS 2              
1 35942U 09054A   17228.36663764 -.00000301  00000-0  00000+0 0  9996
2 35942   0.0216 156.4892 0005265 350.1001 249.3534  1.00272015 28836
COMSATBW-1              
1 35943U 09054B   17227.81090899  .00000007  00000-0  00000-0 0  9992
2 35943   0.0580  86.9374 0001694  72.4223 159.9605  1.00271839 28945
NSS-12                  
1 36032U 09058A   17226.94301934  .00000057  00000-0  00000+0 0  9998
2 36032   0.0350 284.3473 0002500 221.0184 214.6484  1.00272382 28576
THOR 6                  
1 36033U 09058B   17228.22784001 -.00000028  00000-0  00000+0 0  9991
2 36033   0.0409 264.3531 0002206 274.6037 227.0188  1.00271920 28610
INTELSAT 14 (IS-14)     
1 36097U 09064A   17227.22555210 -.00000289  00000-0  00000+0 0  9994
2 36097   0.0080 114.1743 0002300  38.6357 207.2021  1.00268627 28346
EUTELSAT 36B            
1 36101U 09065A   17228.44354917  .00000137  00000-0  00000+0 0  9998
2 36101   0.0658  12.6344 0004352 136.3957  11.5535  1.00271247 28453
INTELSAT 15 (IS-15)     
1 36106U 09067A   17228.51098660 -.00000204  00000-0  00000+0 0  9999
2 36106   0.0152  93.8251 0002196  66.5053  73.8504  1.00271033 28247
DIRECTV 12              
1 36131U 09075A   17228.35974389 -.00000121  00000-0  00000+0 0  9997
2 36131   0.0422 273.3681 0000227 222.2437 216.0233  1.00270994 28028
BEIDOU G1               
1 36287U 10001A   17228.24505117 -.00000301  00000-0  00000+0 0  9997
2 36287   1.4753   3.6762 0003894 170.6301  18.7826  1.00269599 27815
RADUGA-1M 2             
1 36358U 10002A   17228.07683347 -.00000201  00000-0  00000+0 0  9999
2 36358   0.0375 267.5513 0002494 280.7689 248.9871  1.00269775 27656
SDO                     
1 36395U 10005A   17228.35300568 -.00000094  00000-0  00000+0 0  9995
2 36395  28.8286 139.3576 0001277  76.1068 134.3583  1.00268400 27671
INTELSAT 16 (IS-16)     
1 36397U 10006A   17227.85323888 -.00000301  00000-0  00000-0 0  9994
2 36397   0.0124 102.8958 0001421  54.6995  55.9136  1.00267219 27518
